{
  "type": "FeatureCollection",
  "features": [
    {
      "type": "Feature",
      "properties": {
        "norad_id": 31508,
        "name": "FENGYUN 1C DEB",
        "group": "fengyun-1c-debris",
        "lat": 73.6309770721201,
        "lon": -59.95105291573563,
        "alt_km": 691.1994543590517,
        "timestamp": "2025-12-06T14:35:37.409421+00:00",
        "meta_object_name": "FENGYUN 1C DEB",
        "meta_object_id": "1999-025BWX",
        "meta_epoch": "2025-12-06T05:54:35.212896",
        "meta_mean_motion": 14.62232331,
        "meta_eccentricity": 0.00339792,
        "meta_inclination": 98.6342,
        "meta_ra_of_asc_node": 88.5194,
        "meta_arg_of_pericenter": 343.9177,
        "meta_mean_anomaly": 16.0941,
        "meta_ephemeris_type": 0,
        "meta_classification_type": "U",
        "meta_norad_cat_id": 31508,
        "meta_element_set_no": 999,
        "meta_rev_at_epoch": 96829,
        "meta_bstar": 0.0050499993,
        "meta_mean_motion_dot": 0.00025699,
        "meta_mean_motion_ddot": 0,
        "tle_line1": "1 31508U 99025BWX 25340.24624089  .00025699  00000+0  50500-2 0  9993",
        "tle_line2": "2 31508  98.6342  88.5194 0033979 343.9177  16.0941 14.62232331968293"
      },
      "geometry": {
        "type": "Point",
        "coordinates": [
          -59.95105291573563,
          73.6309770721201
        ]
      }
    },
    {
      "type": "Feature",
      "properties": {
        "norad_id": 31509,
        "name": "FENGYUN 1C DEB",
        "group": "fengyun-1c-debris",
        "lat": -16.42923409342565,
        "lon": -82.69805554204817,
        "alt_km": 799.068792294599,
        "timestamp": "2025-12-06T14:35:37.409431+00:00",
        "meta_object_name": "FENGYUN 1C DEB",
        "meta_object_id": "1999-025BWY",
        "meta_epoch": "2025-12-06T01:35:13.530912",
        "meta_mean_motion": 13.94820256,
        "meta_eccentricity": 0.02038319,
        "meta_inclination": 99.0237,
        "meta_ra_of_asc_node": 99.4574,
        "meta_arg_of_pericenter": 236.5207,
        "meta_mean_anomaly": 121.6326,
        "meta_ephemeris_type": 0,
        "meta_classification_type": "U",
        "meta_norad_cat_id": 31509,
        "meta_element_set_no": 999,
        "meta_rev_at_epoch": 93869,
        "meta_bstar": 0.0039430031,
        "meta_mean_motion_dot": 6.249e-05,
        "meta_mean_motion_ddot": 0,
        "tle_line1": "1 31509U 99025BWY 25340.06612883  .00006249  00000+0  39430-2 0  9992",
        "tle_line2": "2 31509  99.0237  99.4574 0203831 236.5207 121.6326 13.94820256938696"
      },
      "geometry": {
        "type": "Point",
        "coordinates": [
          -82.69805554204817,
          -16.42923409342565
        ]
      }
    },
    {
      "type": "Feature",
      "properties": {
        "norad_id": 31510,
        "name": "FENGYUN 1C DEB",
        "group": "fengyun-1c-debris",
        "lat": 35.23439809736533,
        "lon": -26.132486513723975,
        "alt_km": 788.8605791196669,
        "timestamp": "2025-12-06T14:35:37.409441+00:00",
        "meta_object_name": "FENGYUN 1C DEB",
        "meta_object_id": "1999-025BWZ",
        "meta_epoch": "2025-12-06T06:04:31.555200",
        "meta_mean_motion": 14.2453779,
        "meta_eccentricity": 0.00375224,
        "meta_inclination": 98.5536,
        "meta_ra_of_asc_node": 339.6242,
        "meta_arg_of_pericenter": 350.7602,
        "meta_mean_anomaly": 25.5517,
        "meta_ephemeris_type": 0,
        "meta_classification_type": "U",
        "meta_norad_cat_id": 31510,
        "meta_element_set_no": 999,
        "meta_rev_at_epoch": 96395,
        "meta_bstar": 0.00098453338,
        "meta_mean_motion_dot": 2.258e-05,
        "meta_mean_motion_ddot": 0,
        "tle_line1": "1 31510U 99025BWZ 25340.25314300  .00002258  00000+0  98453-3 0  9995",
        "tle_line2": "2 31510  98.5536 339.6242 0037522 350.7602  25.5517 14.24537790963958"
      },
      "geometry": {
        "type": "Point",
        "coordinates": [
          -26.132486513723975,
          35.23439809736533
        ]
      }
    },
    {
      "type": "Feature",
      "properties": {
        "norad_id": 31511,
        "name": "FENGYUN 1C DEB",
        "group": "fengyun-1c-debris",
        "lat": -47.692571522424416,
        "lon": 159.12646202376587,
        "alt_km": 774.2741883609833,
        "timestamp": "2025-12-06T14:35:37.409451+00:00",
        "meta_object_name": "FENGYUN 1C DEB",
        "meta_object_id": "1999-025BXA",
        "meta_epoch": "2025-12-05T22:00:15.181632",
        "meta_mean_motion": 14.27991614,
        "meta_eccentricity": 0.01096951,
        "meta_inclination": 99.0676,
        "meta_ra_of_asc_node": 148.3037,
        "meta_arg_of_pericenter": 246.1309,
        "meta_mean_anomaly": 112.8345,
        "meta_ephemeris_type": 0,
        "meta_classification_type": "U",
        "meta_norad_cat_id": 31511,
        "meta_element_set_no": 999,
        "meta_rev_at_epoch": 95703,
        "meta_bstar": 0.002130032,
        "meta_mean_motion_dot": 5.59e-05,
        "meta_mean_motion_ddot": 0,
        "tle_line1": "1 31511U 99025BXA 25339.91684238  .00005590  00000+0  21300-2 0  9995",
        "tle_line2": "2 31511  99.0676 148.3037 0109695 246.1309 112.8345 14.27991614957033"
      },
      "geometry": {
        "type": "Point",
        "coordinates": [
          159.12646202376587,
          -47.692571522424416
        ]
      }
    },
    {
      "type": "Feature",
      "properties": {
        "norad_id": 31512,
        "name": "FENGYUN 1C DEB",
        "group": "fengyun-1c-debris",
        "lat": -22.809940447832528,
        "lon": 52.04124452026976,
        "alt_km": 669.6716406436317,
        "timestamp": "2025-12-06T14:35:37.409461+00:00",
        "meta_object_name": "FENGYUN 1C DEB",
        "meta_object_id": "1999-025BXB",
        "meta_epoch": "2025-12-05T11:51:16.060032",
        "meta_mean_motion": 14.43784162,
        "meta_eccentricity": 0.01439454,
        "meta_inclination": 98.8042,
        "meta_ra_of_asc_node": 234.6261,
        "meta_arg_of_pericenter": 168.6219,
        "meta_mean_anomaly": 5.8164,
        "meta_ephemeris_type": 0,
        "meta_classification_type": "U",
        "meta_norad_cat_id": 31512,
        "meta_element_set_no": 999,
        "meta_rev_at_epoch": 65397,
        "meta_bstar": 0.00083958761,
        "meta_mean_motion_dot": 3.189e-05,
        "meta_mean_motion_ddot": 0,
        "tle_line1": "1 31512U 99025BXB 25339.49393588  .00003189  00000+0  83959-3 0  9995",
        "tle_line2": "2 31512  98.8042 234.6261 0143945 168.6219   5.8164 14.43784162653972"
      },
      "geometry": {
        "type": "Point",
        "coordinates": [
          52.04124452026976,
          -22.809940447832528
        ]
      }
    },
    {
      "type": "Feature",
      "properties": {
        "norad_id": 31513,
        "name": "FENGYUN 1C DEB",
        "group": "fengyun-1c-debris",
        "lat": -58.918682846158255,
        "lon": 92.19868107674012,
        "alt_km": 809.2202163140546,
        "timestamp": "2025-12-06T14:35:37.409471+00:00",
        "meta_object_name": "FENGYUN 1C DEB",
        "meta_object_id": "1999-025BXC",
        "meta_epoch": "2025-11-25T02:15:23.832576",
        "meta_mean_motion": 14.32315683,
        "meta_eccentricity": 0.00282412,
        "meta_inclination": 98.8622,
        "meta_ra_of_asc_node": 65.435,
        "meta_arg_of_pericenter": 176.3464,
        "meta_mean_anomaly": 183.7931,
        "meta_ephemeris_type": 0,
        "meta_classification_type": "U",
        "meta_norad_cat_id": 31513,
        "meta_element_set_no": 999,
        "meta_rev_at_epoch": 72616,
        "meta_bstar": 0.0023967664,
        "meta_mean_motion_dot": 6.459e-05,
        "meta_mean_motion_ddot": 0,
        "tle_line1": "1 31513U 99025BXC 25329.09402584  .00006459  00000+0  23968-2 0  9994",
        "tle_line2": "2 31513  98.8622  65.4350 0028241 176.3464 183.7931 14.32315683726161"
      },
      "geometry": {
        "type": "Point",
        "coordinates": [
          92.19868107674012,
          -58.918682846158255
        ]
      }
    },
    {
      "type": "Feature",
      "properties": {
        "norad_id": 31514,
        "name": "FENGYUN 1C DEB",
        "group": "fengyun-1c-debris",
        "lat": 68.28945351957096,
        "lon": 85.21818928019921,
        "alt_km": 781.0219552429498,
        "timestamp": "2025-12-06T14:35:37.409481+00:00",
        "meta_object_name": "FENGYUN 1C DEB",
        "meta_object_id": "1999-025BXD",
        "meta_epoch": "2025-12-05T11:02:25.678752",
        "meta_mean_motion": 14.2091331,
        "meta_eccentricity": 0.00520651,
        "meta_inclination": 99.2468,
        "meta_ra_of_asc_node": 239.8662,
        "meta_arg_of_pericenter": 136.0856,
        "meta_mean_anomaly": 224.4476,
        "meta_ephemeris_type": 0,
        "meta_classification_type": "U",
        "meta_norad_cat_id": 31514,
        "meta_element_set_no": 999,
        "meta_rev_at_epoch": 69221,
        "meta_bstar": 0.0029536285,
        "meta_mean_motion_dot": 6.438e-05,
        "meta_mean_motion_ddot": 0,
        "tle_line1": "1 31514U 99025BXD 25339.46001943  .00006438  00000+0  29536-2 0  9995",
        "tle_line2": "2 31514  99.2468 239.8662 0052065 136.0856 224.4476 14.20913310692210"
      },
      "geometry": {
        "type": "Point",
        "coordinates": [
          85.21818928019921,
          68.28945351957096
        ]
      }
    }
  ]
}